IXPE                    
1 49954U 21121A   24131.58334491  .00005698  00000+0  40555-3 0  9995
2 49954   0.2306 312.8327 0009938  79.1607  11.6015 14.97664321  5742
